ORBCOMM FM40            
1 33065U 08031F   24331.88159470  .00005667  00000+0  76612-3 0  9992
2 33065  48.4410 211.5513 0007437 232.5414 184.8688 14.80105301884174
VESSELSAT 1             
1 37840U 11058C   24331.88964223  .00000550  00000+0  15544-3 0  9993
2 37840  19.9612 237.9231 0013803 121.2509 238.9248 14.11268511677695
ORBCOMM FM109           
1 40086U 14040A   24331.87576142  .00002632  00000+0  60859-3 0  9993
2 40086  47.0026 251.3226 0001571 102.6224 257.4837 14.57615011551548
ORBCOMM FM107           
1 40087U 14040B   24331.84462382  .00002563  00000+0  59450-3 0  9999
2 40087  47.0042 252.5015 0000932  63.2628 296.8353 14.57548618551612
ORBCOMM FM111           
1 40089U 14040D   24331.55457396  .00007108  00000+0  85832-3 0  9991
2 40089  47.0033 328.7042 0032303 304.5504  55.2345 14.84121466560101
ORBCOMM FM104           
1 40090U 14040E   24331.88952223  .00002413  00000+0  58031-3 0  9993
2 40090  47.0047 283.5108 0016957 359.0406   1.0444 14.55993986551136
